1 35485U 97051QF  10110.24141289 +.00007481 +00000-0 +15889-2 0 0112
2 35485 086.2166 284.6420 0100252 276.9462 082.0281 14.5585887105202
1 35486U 97051QG  10109.95559535 +.00004338 +00000-0 +18118-2 0 0078
2 35486 086.4032 303.6787 0065238 135.3031 225.3402 14.2481974805104
1 35487U 97051QH  10106.97833329 +.00002667 +00000-0 +12918-2 0 0111
2 35487 086.3668 305.5100 0093294 149.6773 210.9601 14.1584381105040
1 35488U 97051QJ  10107.28175099 +.00000649 +00000-0 +17823-3 0 0093
2 35488 086.3390 295.2825 0046912 255.1621 104.4261 14.4495842605095
1 35489U 97051QK  10110.88146934 +.00002129 +00000-0 +72327-3 0 0209
2 35489 086.4106 300.2787 0021708 012.7846 347.4015 14.3610934505335
1 35490U 97051QL  10109.45423178 +.00151508 +00000-0 +14821-1 0 0224
2 35490 086.3409 288.0936 0006142 166.9254 189.6717 14.9151214705403
1 35491U 09033A   10110.56548714 -.00000099 +00000-0 +10000-3 0 0442
2 35491 000.0896 259.1446 0003452 137.6959 270.7836 01.0027263500300
1 35492U 09033B   10108.58541896 -.00000154 +00000-0 +00000-0 0 0135
2 35492 013.8064 057.8721 5206901 244.6692 053.6032 01.9316788200569
1 35493U 09034A   10109.45521595 -.00000148 +00000-0 +00000-0 0 0142
2 35493 000.0347 247.6309 0002568 135.7398 251.9714 01.0027218900297
1 35494U 09034B   10109.49838753 -.00000160 +00000-0 +00000-0 0 0119
2 35494 022.4143 164.6458 6117634 087.2927 336.7662 02.0437307400597
1 35495U 09034C   10110.77220801 -.00000160 +00000-0 +00000-0 0 0422
2 35495 049.6825 338.6525 5163200 193.0328 145.7275 05.3614057701574
1 35496U 09035A   10108.32914782 -.00000062 +00000-0 +10000-3 0 0177
2 35496 005.5504 319.7892 0002806 062.9696 191.0580 01.0027260400297
1 35497U 09035B   10110.54534368 +.00005226 +00000-0 +47686-3 0 0297
2 35497 005.4112 183.5313 7079358 145.4994 292.7893 02.5639211300702
1 35498U 09036A   10110.86694693 +.00000023 +00000-0 +10000-3 0 0268
2 35498 082.4885 153.8340 0008060 072.4420 287.7542 12.4079224403581
1 35499U 09036B   10110.87667499 +.00000023 +00000-0 +10000-3 0 0274
2 35499 082.4934 153.8455 0007848 063.2994 296.8890 12.4109995503582
1 35500U 09036C   10110.88405339 +.00000023 +00000-0 +10000-3 0 0263
2 35500 082.4890 153.6214 0007772 047.8048 312.3692 12.4141172103584
1 35501U 09036D   10110.69342346 +.00000033 +00000-0 +10000-3 0 0140
2 35501 082.4914 141.8942 0195761 320.7783 037.9261 12.7658241203682
1 35502U 65108DH  10059.86420764 -.00000290 +00000-0 -79531-3 0 0043
2 35502 026.7526 201.2431 6665857 326.9994 005.1431 02.9124137004941
1 35503U 65108DJ  10108.13983125 -.00000048 +00000-0 +10000-3 0 0058
2 35503 026.7656 047.3739 6791663 277.0907 016.1312 02.5972147005377
1 35504U 77047R   09216.15363130 +.00000900 +00000-0 +10000-3 0 0008
2 35504 069.6543 036.2680 6525501 016.1977 356.7790 02.0070703600927
1 35505U 77047S   10106.12107669 +.00000735 +00000-0 +10000-3 0 0108
2 35505 066.9379 088.3423 5556634 102.8877 321.7957 02.0163993702694
1 35506U 79095W   10089.59636894 +.00000185 +00000-0 +94512-4 0 0012
2 35506 081.1843 213.4955 0012261 345.2473 084.7815 14.1188086122704
1 35507U 81031N   10107.48530252 -.00000418 +00000-0 +10000-3 0 0087
2 35507 066.4729 132.8498 5831951 119.8949 310.1052 02.0181971301797
1 35508U 81108H   10110.46112003 -.00000462 +00000-0 +10000-3 0 0139
2 35508 071.4160 329.0499 5358601 139.2155 278.7084 02.0035930001204
1 35509U 81108J   10092.05520417 +.00000024 +00000-0 +10000-3 0 0099
2 35509 069.9577 002.2963 5439073 172.4123 201.4824 01.9963572301126
1 35510U 81108K   09102.49526896 -.00000593 +00000-0 +10000-3 0 0001
2 35510 070.8103 357.5432 5424658 155.4697 244.8584 02.0012516200328
1 35511U 81108L   10108.99908662 -.00000343 +00000-0 +10000-3 0 0106
2 35511 071.1727 343.3059 5306105 145.8090 262.7295 02.0023976201058
1 35512U 81108M   10106.89252159 -.00000741 +00000-0 +10000-3 0 0124
2 35512 070.6926 308.9152 5461153 131.3648 290.4331 02.0183261303084
1 35513U 81108N   10109.94272735 -.00000542 +00000-0 +10000-3 0 0128
2 35513 070.6031 313.4811 5495332 138.5316 282.2766 02.0202690202658
1 35514U 81108P   10082.98198063 -.00000491 +00000-0 +10000-3 0 0093
2 35514 070.1010 289.9745 5593707 130.3902 293.7774 02.0263579019056
1 35515U 82029N   10109.87756952 -.00000433 +00000-0 +10000-3 0 0108
2 35515 069.5466 321.3186 5628093 156.1674 245.7138 02.0543022602501
1 35516U 82116H   10107.46692953 +.00000078 +00000-0 +32362-4 0 0048
2 35516 081.2562 028.8569 0066042 216.3403 143.3470 14.1594802040550
1 35517U 86019VQ  10103.71631687 +.00000056 +00000-0 +72250-4 0 0039
2 35517 098.8196 280.4429 0390738 305.2797 051.2167 13.6442807033767
1 35518U 87011J   10109.67303800 +.00000099 +00000-0 +74975-4 0 0075
2 35518 065.0068 214.9491 0018680 276.6096 083.2866 14.3137783207886
1 35519U 87068CN  10107.39183696 +.00001129 +00000-0 +52781-3 0 0070
2 35519 082.8456 263.5556 0025626 149.4906 210.7772 14.1936269629424
1 35520U 87068CP  10110.19466036 +.00000104 +00000-0 +77967-4 0 0048
2 35520 082.5471 293.4762 0009422 079.1779 281.0301 13.8531977338474
1 35521U 87068CQ  10102.83617443 +.00000141 +00000-0 +10993-3 0 0045
2 35521 082.5617 302.1049 0010336 079.1841 281.0921 13.8599839528074
1 35522U 87068CR  10093.32463878 +.00000152 +00000-0 +12054-3 0 0008
2 35522 082.5487 311.6507 0020196 164.5409 195.6671 13.8516119335382
1 35523U 87068CS  10084.82301709 +.00000580 +00000-0 +43681-3 0 0015
2 35523 082.4942 272.9221 0020178 177.3438 183.3148 13.9270998826792
1 35524U 87068CT  10107.72456099 +.00001337 +00000-0 +10055-2 0 0028
2 35524 082.5295 254.8726 0029218 077.8393 270.1616 13.9351141635376
1 35525U 87068CU  10107.83557229 +.00000102 +00000-0 +81119-4 0 0057
2 35525 082.5492 315.4778 0020332 207.4715 152.5201 13.8188771434939
1 35526U 88074P   10038.23220939 +.00000312 +00000-0 +45701-3 0 0015
2 35526 089.9264 031.7705 0083267 050.2282 310.6485 13.5107536126706
1 35527U 88074Q   10044.17847561 -.00000763 +00000-0 -77248-3 0 0032
2 35527 089.8649 015.0154 0029076 199.8802 159.5271 13.7775868916838
1 35528U 88074R   10053.22503763 +.00000269 +00000-0 +39301-3 0 0025
2 35528 089.8907 026.0032 0096497 005.8356 354.7495 13.5063163510271
1 35529U 88074S   09247.15259383 +.00000401 +00000-0 +57456-3 0 0003
2 35529 089.8873 030.3444 0076616 086.3706 273.1611 13.5301032721855
1 35530U 91068AX  10024.21182196 +.00000024 +00000-0 +10000-3 0 0012
2 35530 082.7096 339.6882 0035613 054.7907 306.0625 12.4375099026900
1 35531U 91082CN  10080.29247678 +.00000643 +00000-0 +27472-3 0 0022
2 35531 098.5377 103.1327 0034820 025.9653 334.2681 14.2803173319947
1 35532U 91082CP  10109.20792390 +.00001482 +00000-0 +11186-2 0 0068
2 35532 098.7565 024.9804 0154663 114.3550 247.3937 13.9010974829564
1 35533U 75052LG  10110.07945121 +.00001464 +00000-0 +87019-3 0 0107
2 35533 099.7397 150.9643 0017427 355.3903 004.7182 14.0922422236785
1 35534U 91082CQ  10108.31760800 +.00001332 +00000-0 +78134-3 0 0073
2 35534 098.7057 070.2621 0063836 282.8177 076.5866 14.0886214830029
1 35535U 75052LH  10102.50373413 -.00000022 +00000-0 +19435-4 0 0053
2 35535 098.9861 004.2302 0094460 244.4499 114.6865 13.7869560135222
1 35536U 01049QL  10051.26218800 +.00000249 +00000-0 +16651-3 0 0026
2 35536 098.6101 221.4730 0442041 096.0740 269.0719 13.6867544233064
1 35537U 01049QM  10059.18348254 +.00000103 +00000-0 +46204-4 0 0007
2 35537 098.1612 048.2660 0087714 170.1606 190.0506 14.3755626028129
1 35538U 06006CF  10110.28046983 -.00000950 +00000-0 -47218-2 0 0069
2 35538 051.8835 175.3292 5127108 035.5034 349.8301 05.0151040503799
1 35539U 06006CG  10108.23970367 +.00014876 +00000-0 +11289-1 0 0136
2 35539 051.5980 054.4298 4977213 132.1446 282.5380 05.5095081203755
1 35540U 06006CH  10110.23271241 -.00000040 +00000-0 -78787-4 0 0059
2 35540 052.1293 141.5108 5097640 046.6631 345.9941 05.1430028203689
1 35541U 06006CJ  10109.40913797 +.00000489 +00000-0 +62282-3 0 0083
2 35541 051.4772 125.1157 5183984 084.1606 330.1693 05.1237717403647
1 35542U 06006CK  10107.32400087 -.00000378 +00000-0 -30022-2 0 0054
2 35542 051.5082 164.9046 5004222 055.2584 342.3352 05.1183451803628
1 35543U 06006CL  09188.82178703 -.00000142 +00000-0 -56988-3 0 0001
2 35543 052.8015 016.9874 5131674 222.0343 084.5712 04.9825243701774
1 35544U 06006CM  10109.07165137 +.00018066 +00000-0 +46546-2 0 0174
2 35544 051.5321 015.4129 4957449 167.1219 212.5690 05.6522824303510
1 35545U 06006CN  10098.94429060 +.00027303 +00000-0 +63190-2 0 0108
2 35545 051.9270 325.9894 4776603 182.3757 174.2508 05.9610436404172
1 35546U 06006CP  09257.45617442 +.00007273 +00000-0 +15981-0 0 0013
2 35546 051.7262 057.0020 5260005 217.1121 091.4930 04.5593576701841
1 35547U 07003F   10109.92948478 +.00008902 +00000-0 +59662-2 0 0197
2 35547 024.8310 353.6636 7442994 106.6963 340.0752 02.0617408401661
1 35548U 07003G   10110.11176869 +.00000032 +00000-0 +23511-2 0 0055
2 35548 026.2218 051.3827 7567106 353.5615 000.4887 01.8190043000986
1 35549U 07003H   10110.05931495 +.00004910 +00000-0 +60156-2 0 0106
2 35549 024.9195 007.5426 7503245 082.3313 348.9046 01.9772051001613
1 35550U 07003J   10109.22686498 +.00000788 +00000-0 +33060-2 0 0083
2 35550 024.7277 028.5110 7561818 048.0787 354.9210 01.8715123001492
1 35551U 07003K   10107.98913175 +.00000286 +00000-0 +57893-2 0 0121
2 35551 025.4544 350.7290 7253126 103.7244 339.5930 02.1436599901766
1 35552U 07003L   10105.08050383 +.00001004 +00000-0 +43123-2 0 0085
2 35552 026.5328 028.5190 7547215 031.3882 356.7397 01.8893088301558
1 35553U 07003M   10081.82551656 +.00006903 +00000-0 +12236-1 0 0007
2 35553 024.4165 014.2152 7457821 076.8529 350.3120 02.0149670001652
1 35554U 07003N   10109.60295426 +.00000178 +00000-0 +39863-2 0 0066
2 35554 024.4692 049.8461 7543261 012.8267 358.6328 01.8365098601573
1 35555U 07003P   10109.42251867 +.00011586 +00000-0 +16026-1 0 0085
2 35555 027.0765 009.7194 7491294 058.3554 353.5774 01.9856626601688
